start=new Date('2022-10-08T00:00:00.000Z').valueOf();
sats=[{"RCS_SIZE":"LARGE","REF_FRAME":"TEME","MEAN_MOTION":"15.08830309","LAUNCH_DATE":"2022-02-03","OBJECT_NAME":"STARLINK-3181","MEAN_ELEMENT_THEORY":"SGP4","ARG_OF_PERICENTER":"56.6531","COUNTRY_CODE":"US","REV_AT_EPOCH":"3829","RA_OF_ASC_NODE":"125.2640","FILE":"3595773","ECCENTRICITY":"0.00016010","TIME_SYSTEM":"UTC","TLE_LINE2":"2 51461  53.2184 125.2640 0001601  56.6531 303.4614 15.08830309 38296","OBJECT_TYPE":"PAYLOAD","MEAN_ANOMALY":"303.4614","TLE_LINE1":"1 51461U 22010F   22280.87956795  .00000619  00000-0  56984-4 0  9994","MEAN_MOTION_DOT":"0.00000619","PERIAPSIS":"538.667","NORAD_CAT_ID":"51461","INCLINATION":"53.2184","SITE":"AFETR","ELEMENT_SET_NO":"999","BSTAR":"0.00005698400000","APOAPSIS":"540.883","MEAN_MOTION_DDOT":"0.0000000000000","CLASSIFICATION_TYPE":"U","DECAY_DATE":null,"EPOCH":"2022-10-07T21:06:34.670880","GP_ID":"214435913","PERIOD":"95.438","OBJECT_ID":"2022-010F","EPHEMERIS_TYPE":"0","SEMIMAJOR_AXIS":"6917.910","CENTER_NAME":"EARTH"},{"BSTAR":"0.00007066600000","ELEMENT_SET_NO":"999","SITE":"AFETR","MEAN_MOTION_DOT":"0.00000836","INCLINATION":"53.2170","NORAD_CAT_ID":"51462","PERIAPSIS":"538.408","DECAY_DATE":null,"CLASSIFICATION_TYPE":"U","GP_ID":"214436163","EPOCH":"2022-10-07T21:01:16.787136","MEAN_MOTION_DDOT":"0.0000000000000","APOAPSIS":"541.168","OBJECT_ID":"2022-010G","EPHEMERIS_TYPE":"0","SEMIMAJOR_AXIS":"6917.923","PERIOD":"95.438","CENTER_NAME":"EARTH","LAUNCH_DATE":"2022-02-03","RCS_SIZE":"LARGE","MEAN_MOTION":"15.08826019","REF_FRAME":"TEME","FILE":"3595773","REV_AT_EPOCH":"3829","RA_OF_ASC_NODE":"125.2747","TIME_SYSTEM":"UTC","ECCENTRICITY":"0.00019950","MEAN_ELEMENT_THEORY":"SGP4","OBJECT_NAME":"STARLINK-3166","COUNTRY_CODE":"US","ARG_OF_PERICENTER":"41.5888","OBJECT_TYPE":"PAYLOAD","TLE_LINE2":"2 51462  53.2170 125.2747 0001995  41.5888 318.5255 15.08826019 38295","TLE_LINE1":"1 51462U 22010G   22280.87588874  .00000836  00000-0  70666-4 0  9998","MEAN_ANOMALY":"318.5255"},{"CENTER_NAME":"EARTH","OBJECT_ID":"2022-010H","EPHEMERIS_TYPE":"0","SEMIMAJOR_AXIS":"6917.890","PERIOD":"95.438","DECAY_DATE":null,"CLASSIFICATION_TYPE":"U","GP_ID":"214436915","EPOCH":"2022-10-07T20:24:10.813824","APOAPSIS":"540.953","MEAN_MOTION_DDOT":"0.0000000000000","SITE":"AFETR","ELEMENT_SET_NO":"999","BSTAR":"0.00005130500000","MEAN_MOTION_DOT":"0.00000528","PERIAPSIS":"538.556","NORAD_CAT_ID":"51463","INCLINATION":"53.2183","MEAN_ANOMALY":"311.5788","TLE_LINE1":"1 51463U 22010H   22280.85012516  .00000528  00000-0  51305-4 0  9999","OBJECT_TYPE":"PAYLOAD","TLE_LINE2":"2 51463  53.2183 125.3822 0001732  48.5353 311.5788 15.08836976 37980","REV_AT_EPOCH":"3798","RA_OF_ASC_NODE":"125.3822","FILE":"3595773","ECCENTRICITY":"0.00017320","TIME_SYSTEM":"UTC","OBJECT_NAME":"STARLINK-3419","MEAN_ELEMENT_THEORY":"SGP4","COUNTRY_CODE":"US","ARG_OF_PERICENTER":"48.5353","LAUNCH_DATE":"2022-02-03","RCS_SIZE":"LARGE","REF_FRAME":"TEME","MEAN_MOTION":"15.08836976"},{"OBJECT_TYPE":"PAYLOAD","TLE_LINE2":"2 51464  53.2188 125.3081 0001870  45.7969 314.3177 15.08831702 38793","TLE_LINE1":"1 51464U 22010J   22280.86852724  .00001834  00000-0  13332-3 0  9992","MEAN_ANOMALY":"314.3177","LAUNCH_DATE":"2022-02-03","MEAN_MOTION":"15.08831702","REF_FRAME":"TEME","RCS_SIZE":"LARGE","TIME_SYSTEM":"UTC","ECCENTRICITY":"0.00018700","FILE":"3595773","REV_AT_EPOCH":"3879","RA_OF_ASC_NODE":"125.3081","ARG_OF_PERICENTER":"45.7969","COUNTRY_CODE":"US","MEAN_ELEMENT_THEORY":"SGP4","OBJECT_NAME":"STARLINK-3189","SEMIMAJOR_AXIS":"6917.906","OBJECT_ID":"2022-010J","EPHEMERIS_TYPE":"0","PERIOD":"95.438","CENTER_NAME":"EARTH","ELEMENT_SET_NO":"999","BSTAR":"0.00013332000000","SITE":"AFETR","INCLINATION":"53.2188","PERIAPSIS":"538.477","NORAD_CAT_ID":"51464","MEAN_MOTION_DOT":"0.00001834","GP_ID":"214437666","EPOCH":"2022-10-07T20:50:40.753536","CLASSIFICATION_TYPE":"U","DECAY_DATE":null,"APOAPSIS":"541.064","MEAN_MOTION_DDOT":"0.0000000000000"},{"TLE_LINE1":"1 51465U 22010K   22280.86484278  .00003379  00000-0  23029-3 0  9998","MEAN_ANOMALY":"313.5898","TLE_LINE2":"2 51465  53.2171 125.3215 0001694  46.5235 313.5898 15.08840996 38790","OBJECT_TYPE":"PAYLOAD","COUNTRY_CODE":"US","ARG_OF_PERICENTER":"46.5235","MEAN_ELEMENT_THEORY":"SGP4","OBJECT_NAME":"STARLINK-3401","TIME_SYSTEM":"UTC","ECCENTRICITY":"0.00016940","FILE":"3595773","REV_AT_EPOCH":"3879","RA_OF_ASC_NODE":"125.3215","MEAN_MOTION":"15.08840996","REF_FRAME":"TEME","RCS_SIZE":"LARGE","LAUNCH_DATE":"2022-02-03","CENTER_NAME":"EARTH","PERIOD":"95.437","SEMIMAJOR_AXIS":"6917.877","OBJECT_ID":"2022-010K","EPHEMERIS_TYPE":"0","MEAN_MOTION_DDOT":"0.0000000000000","APOAPSIS":"540.914","GP_ID":"214436414","EPOCH":"2022-10-07T20:45:22.416192","DECAY_DATE":null,"CLASSIFICATION_TYPE":"U","INCLINATION":"53.2171","PERIAPSIS":"538.570","NORAD_CAT_ID":"51465","MEAN_MOTION_DOT":"0.00003379","ELEMENT_SET_NO":"999","BSTAR":"0.00023029000000","SITE":"AFETR"},{"LAUNCH_DATE":"2022-02-03","RCS_SIZE":"LARGE","REF_FRAME":"TEME","MEAN_MOTION":"15.08844002","REV_AT_EPOCH":"3798","RA_OF_ASC_NODE":"125.4037","FILE":"3595773","ECCENTRICITY":"0.00019990","TIME_SYSTEM":"UTC","OBJECT_NAME":"STARLINK-3178","MEAN_ELEMENT_THEORY":"SGP4","ARG_OF_PERICENTER":"44.6777","COUNTRY_CODE":"US","OBJECT_TYPE":"PAYLOAD","TLE_LINE2":"2 51467  53.2151 125.4037 0001999  44.6777 315.4376 15.08844002 37985","MEAN_ANOMALY":"315.4376","TLE_LINE1":"1 51467U 22010M   22280.84644232  .00005379  00000-0  35577-3 0  9999","SITE":"AFETR","BSTAR":"0.00035577000000","ELEMENT_SET_NO":"999","MEAN_MOTION_DOT":"0.00005379","PERIAPSIS":"538.350","NORAD_CAT_ID":"51467","INCLINATION":"53.2151","DECAY_DATE":null,"CLASSIFICATION_TYPE":"U","EPOCH":"2022-10-07T20:18:52.616448","GP_ID":"214436664","MEAN_MOTION_DDOT":"0.0000000000000","APOAPSIS":"541.116","OBJECT_ID":"2022-010M","EPHEMERIS_TYPE":"0","SEMIMAJOR_AXIS":"6917.868","PERIOD":"95.437","CENTER_NAME":"EARTH"},{"REF_FRAME":"TEME","MEAN_MOTION":"15.08832133","RCS_SIZE":"LARGE","LAUNCH_DATE":"2022-02-03","COUNTRY_CODE":"US","ARG_OF_PERICENTER":"54.8884","OBJECT_NAME":"STARLINK-3174","MEAN_ELEMENT_THEORY":"SGP4","ECCENTRICITY":"0.00015100","TIME_SYSTEM":"UTC","RA_OF_ASC_NODE":"125.3593","REV_AT_EPOCH":"3798","FILE":"3595773","TLE_LINE2":"2 51468  53.2170 125.3593 0001510  54.8884 305.2250 15.08832133 37984","OBJECT_TYPE":"PAYLOAD","MEAN_ANOMALY":"305.2250","TLE_LINE1":"1 51468U 22010N   22280.85748382  .00004708  00000-0  31379-3 0  9993","NORAD_CAT_ID":"51468","PERIAPSIS":"538.725","INCLINATION":"53.2170","MEAN_MOTION_DOT":"0.00004708","SITE":"AFETR","ELEMENT_SET_NO":"999","BSTAR":"0.00031379000000","APOAPSIS":"540.814","MEAN_MOTION_DDOT":"0.0000000000000","GP_ID":"214437416","EPOCH":"2022-10-07T20:34:46.602048","DECAY_DATE":null,"CLASSIFICATION_TYPE":"U","PERIOD":"95.438","SEMIMAJOR_AXIS":"6917.904","OBJECT_ID":"2022-010N","EPHEMERIS_TYPE":"0","CENTER_NAME":"EARTH"},{"OBJECT_NAME":"STARLINK-3182","MEAN_ELEMENT_THEORY":"SGP4","ARG_OF_PERICENTER":"44.3828","COUNTRY_CODE":"US","REV_AT_EPOCH":"3829","RA_OF_ASC_NODE":"125.2782","FILE":"3595773","ECCENTRICITY":"0.00018710","TIME_SYSTEM":"UTC","RCS_SIZE":"LARGE","REF_FRAME":"TEME","MEAN_MOTION":"15.08832313","LAUNCH_DATE":"2022-02-03","MEAN_ANOMALY":"315.7313","TLE_LINE1":"1 51469U 22010P   22280.87220779  .00001834  00000-0  13333-3 0  9998","TLE_LINE2":"2 51469  53.2176 125.2782 0001871  44.3828 315.7313 15.08832313 38293","OBJECT_TYPE":"PAYLOAD","MEAN_MOTION_DDOT":"0.0000000000000","APOAPSIS":"541.063","DECAY_DATE":null,"CLASSIFICATION_TYPE":"U","GP_ID":"214437166","EPOCH":"2022-10-07T20:55:58.753056","MEAN_MOTION_DOT":"0.00001834","PERIAPSIS":"538.475","NORAD_CAT_ID":"51469","INCLINATION":"53.2176","SITE":"AFETR","ELEMENT_SET_NO":"999","BSTAR":"0.00013333000000","CENTER_NAME":"EARTH","PERIOD":"95.438","OBJECT_ID":"2022-010P","EPHEMERIS_TYPE":"0","SEMIMAJOR_AXIS":"6917.904"},{"ELEMENT_SET_NO":"999","BSTAR":"0.00001756900000","SITE":"AFETR","INCLINATION":"53.2182","PERIAPSIS":"538.474","NORAD_CAT_ID":"51471","MEAN_MOTION_DOT":"-0.00000009","EPOCH":"2022-10-07T21:09:53.078112","GP_ID":"214435914","DECAY_DATE":null,"CLASSIFICATION_TYPE":"U","MEAN_MOTION_DDOT":"0.0000000000000","APOAPSIS":"541.028","SEMIMAJOR_AXIS":"6917.886","OBJECT_ID":"2022-010R","EPHEMERIS_TYPE":"0","PERIOD":"95.438","CENTER_NAME":"EARTH","LAUNCH_DATE":"2022-02-03","MEAN_MOTION":"15.08838090","REF_FRAME":"TEME","RCS_SIZE":"LARGE","TIME_SYSTEM":"UTC","ECCENTRICITY":"0.00018460","FILE":"3595773","REV_AT_EPOCH":"3836","RA_OF_ASC_NODE":"120.2473","ARG_OF_PERICENTER":"42.8065","COUNTRY_CODE":"US","MEAN_ELEMENT_THEORY":"SGP4","OBJECT_NAME":"STARLINK-3165","OBJECT_TYPE":"PAYLOAD","TLE_LINE2":"2 51471  53.2182 120.2473 0001846  42.8065 317.3071 15.08838090 38368","TLE_LINE1":"1 51471U 22010R   22280.88186433 -.00000009  00000-0  17569-4 0  9990","MEAN_ANOMALY":"317.3071"},{"CENTER_NAME":"EARTH","SEMIMAJOR_AXIS":"6917.870","OBJECT_ID":"2022-010S","EPHEMERIS_TYPE":"0","PERIOD":"95.437","EPOCH":"2022-10-07T20:29:29.034528","GP_ID":"214436164","DECAY_DATE":null,"CLASSIFICATION_TYPE":"U","APOAPSIS":"541.158","MEAN_MOTION_DDOT":"0.0000000000000","BSTAR":"0.00001387800000","ELEMENT_SET_NO":"999","SITE":"AFETR","INCLINATION":"53.2147","PERIAPSIS":"538.313","NORAD_CAT_ID":"51472","MEAN_MOTION_DOT":"-0.00000067","TLE_LINE1":"1 51472U 22010S   22280.85380827 -.00000067  00000-0  13878-4 0  9994","MEAN_ANOMALY":"333.6018","OBJECT_TYPE":"PAYLOAD","TLE_LINE2":"2 51472  53.2147 125.3751 0002056  26.5079 333.6018 15.08843332 38292","TIME_SYSTEM":"UTC","ECCENTRICITY":"0.00020560","FILE":"3595773","REV_AT_EPOCH":"3829","RA_OF_ASC_NODE":"125.3751","COUNTRY_CODE":"US","ARG_OF_PERICENTER":"26.5079","MEAN_ELEMENT_THEORY":"SGP4","OBJECT_NAME":"STARLINK-3415","LAUNCH_DATE":"2022-02-03","MEAN_MOTION":"15.08843332","REF_FRAME":"TEME","RCS_SIZE":"LARGE"}];
